NORAD_CAT_ID,OBJECT_NAME,OBJECT_TYPE,EPOCH,MEAN_MOTION,ECCENTRICITY,INCLINATION,RA_OF_ASC_NODE,ARG_OF_PERICENTER,MEAN_ANOMALY,BSTAR,MEAN_MOTION_DOT,MEAN_MOTION_DDOT,TLE_LINE0,TLE_LINE1,TLE_LINE2,SEMIMAJOR_AXIS,PERIOD,APOGEE,PERIGEE,DECAYED
54095.0,STARLINK-5193,PAYLOAD,2022-12-19 22:00:00,15.29581777,0.0001746,53.2175,212.4935,44.9694,197.9821,-0.042867,-0.01135627,0.0,0 STARLINK-5193,1 54095U 22136AW  22353.91667824 -.01135627  00000-0 -42867-1 0  9990,2 54095  53.2175 212.4935 0001746  44.9694 197.9821 15.29581777  1301,6855.199000000001,94.143,478.261,475.867,0.0
54095.0,STARLINK-5193,PAYLOAD,2022-12-20 14:00:01,15.27961098,0.0001595999999999,53.217,209.4061,43.4582,270.5565,-0.045444,-0.01144226,0.0,0 STARLINK-5193,1 54095U 22136AW  22354.58334491 -.01144226  00000-0 -45444-1 0  9994,2 54095  53.2170 209.4061 0001596  43.4582 270.5565 15.27961098  1304,6860.045,94.243,483.005,480.815,0.0
54095.0,STARLINK-5193,PAYLOAD,2022-12-21 08:00:01,15.26123304,0.0001664,53.2176,205.9441,43.9917,75.3003,-0.047651,-0.01135122,0.0,0 STARLINK-5193,1 54095U 22136AW  22355.33334491 -.01135122  00000-0 -47651-1 0  9995,2 54095  53.2176 205.9441 0001664  43.9917  75.3003 15.26123304 10167,6865.551,94.357,488.559,486.274,0.0
54095.0,STARLINK-5193,PAYLOAD,2022-12-21 14:00:01,15.25512103,0.0001551999999999,53.2175,204.7916,44.5047,8.7788,-0.048449,-0.01148152,0.0,0 STARLINK-5193,1 54095U 22136AW  22355.58334491 -.01148152  00000-0 -48449-1 0  9995,2 54095  53.2175 204.7916 0001552  44.5047   8.7788 15.25512103  1301,6867.385,94.395,490.316,488.184,0.0
54095.0,STARLINK-5193,PAYLOAD,2022-12-22 08:00:01,15.23660672,0.0001406,53.2126,201.3429,88.6657,123.3341,-0.049858,-0.01105349,0.0,0 STARLINK-5193,1 54095U 22136AW  22356.33334491 -.01105349  00000-0 -49858-1 0  9995,2 54095  53.2126 201.3429 0001406  88.6657 123.3341 15.23660672 10316,6872.946999999999,94.509,495.778,493.846,0.0
54095.0,STARLINK-5193,PAYLOAD,2022-12-22 14:00:01,15.23095843,0.0001472,53.2138,200.1944,89.4482,54.3229,-0.05377,-0.01182128,0.0,0 STARLINK-5193,1 54095U 22136AW  22356.58334491 -.01182128  00000-0 -53770-1 0  9990,2 54095  53.2138 200.1944 0001472  89.4482  54.3229 15.23095843  1305,6874.646,94.544,497.523,495.499,0.0
54095.0,STARLINK-5193,PAYLOAD,2022-12-22 22:00:00,15.22202845,0.0001414,53.2158,198.6681,83.0275,88.9665,-0.051297,-0.01090256,0.0,0 STARLINK-5193,1 54095U 22136AW  22356.91667824 -.01090256  00000-0 -51297-1 0  9998,2 54095  53.2158 198.6681 0001414  83.0275  88.9665 15.22202845  1300,6877.335,94.6,500.172,498.227,0.0
54095.0,STARLINK-5193,PAYLOAD,2022-12-23 02:00:01,15.21851362,0.0001227,53.2173,197.9042,62.2319,303.4459,-0.054106,-0.01148988,0.0,0 STARLINK-5193,1 54095U 22136AW  22357.08334491 -.01148988  00000-0 -54106-1 0  9996,2 54095  53.2173 197.9042 0001227  62.2319 303.4459 15.21851362 10433,6878.393,94.622,501.102,499.415,0.0
54095.0,STARLINK-5193,PAYLOAD,2022-12-23 14:00:01,15.20631742,0.0001463,53.2166,195.6148,61.3319,164.0775,-0.056129,-0.01149795,0.0,0 STARLINK-5193,1 54095U 22136AW  22357.58334491 -.01149795  00000-0 -56129-1 0  9995,2 54095  53.2166 195.6148 0001463  61.3319 164.0775 15.20631742  1304,6882.071,94.697,504.943,502.929,0.0
54095.0,STARLINK-5193,PAYLOAD,2022-12-23 22:00:01,15.19814838,0.0001431,53.2169,194.0936,73.7893,176.9495,-0.057266,-0.01145643,0.0,0 STARLINK-5193,1 54095U 22136AW  22357.91668981 -.01145643  00000-0 -57266-1 0  9997,2 54095  53.2169 194.0936 0001431  73.7893 176.9495 15.19814838  1302,6884.5369999999975,94.748,507.387,505.417,0.0
54095.0,STARLINK-5193,PAYLOAD,2022-12-24 04:00:00,15.19221957,0.00015,53.216,192.9521,68.2548,110.72,-0.059608,-0.01169976,0.0,0 STARLINK-5193,1 54095U 22136AW  22358.16667824 -.01169976  00000-0 -59608-1 0  9997,2 54095  53.2160 192.9521 0001500  68.2548 110.7200 15.19221957 10598,6886.328,94.785,509.226,507.16,0.0
54095.0,STARLINK-5193,PAYLOAD,2022-12-24 14:00:01,15.18209396,0.0001343,53.2164,191.0518,71.7761,226.4873,-0.061762,-0.01176483,0.0,0 STARLINK-5193,1 54095U 22136AW  22358.58334491 -.01176483  00000-0 -61762-1 0  9999,2 54095  53.2164 191.0518 0001343  71.7761 226.4873 15.18209396  1301,6889.389,94.849,512.18,510.329,0.0
54095.0,STARLINK-5193,PAYLOAD,2022-12-24 22:00:00,15.17388793,0.0001262,53.2168,189.5366,83.4105,237.1872,-0.06272,-0.01167443,0.0,0 STARLINK-5193,1 54095U 22136AW  22358.91667824 -.01167443  00000-0 -62720-1 0  9996,2 54095  53.2168 189.5366 0001262  83.4105 237.1872 15.17388793  1306,6891.873000000001,94.9,514.6080000000002,512.868,0.0
54095.0,STARLINK-5193,PAYLOAD,2022-12-25 08:00:01,15.16356288,0.0001296999999999,53.2174,187.641,65.6291,11.517,-0.063331,-0.0114607999999999,0.0,0 STARLINK-5193,1 54095U 22136AW  22359.33334491 -.01146080  00000-0 -63331-1 0  9997,2 54095  53.2174 187.6410 0001297  65.6291  11.5170 15.16356288 10777,6895.001,94.964,517.76,515.972,0.0
54095.0,STARLINK-5193,PAYLOAD,2022-12-25 14:00:01,15.15763682,0.0001363,53.2164,186.5061,63.9536,298.3742,-0.065898,-0.01170399,0.0,0 STARLINK-5193,1 54095U 22136AW  22359.58334491 -.01170399  00000-0 -65898-1 0  9994,2 54095  53.2164 186.5061 0001363  63.9536 298.3742 15.15763682  1301,6896.7980000000025,95.002,519.6030000000002,517.7230000000002,0.0
54095.0,STARLINK-5193,PAYLOAD,2022-12-26 00:00:00,15.14726517,0.0001339,53.217,184.6189,74.7633,41.668,-0.066088,-0.01141918,0.0,0 STARLINK-5193,1 54095U 22136AW  22360.00001157 -.01141918  00000-0 -66088-1 0  9990,2 54095  53.2170 184.6189 0001339  74.7633  41.6680 15.14726517  1304,6899.946,95.067,522.735,520.887,0.0
54095.0,STARLINK-5193,PAYLOAD,2022-12-26 06:00:00,15.1413203,0.0001308,53.2167,183.4853,57.1811,342.9682,-0.0687649999999999,-0.0116621,0.0,0 STARLINK-5193,1 54095U 22136AW  22360.25001157 -.01166210  00000-0 -68765-1 0  9993,2 54095  53.2167 183.4853 0001308  57.1811 342.9682 15.14132030 10911,6901.752,95.104,524.52,522.714,0.0
54095.0,STARLINK-5193,PAYLOAD,2022-12-26 14:00:01,15.13312778,0.0001484,53.2164,181.9773,55.1311,2.463,-0.069781,-0.01157135,0.0,0 STARLINK-5193,1 54095U 22136AW  22360.58334491 -.01157135  00000-0 -69781-1 0  9994,2 54095  53.2164 181.9773 0001484  55.1311   2.4630 15.13312778  1302,6904.243,95.155,527.132,525.0830000000002,0.0
54095.0,STARLINK-5193,PAYLOAD,2022-12-26 22:00:00,15.12506628,0.0001386999999999,53.2167,180.4734,65.2168,8.8371,-0.072086,-0.01167611,0.0,0 STARLINK-5193,1 54095U 22136AW  22360.91667824 -.01167611  00000-0 -72086-1 0  9992,2 54095  53.2167 180.4734 0001387  65.2168   8.8371 15.12506628  1300,6906.696,95.206,529.519,527.6030000000002,0.0
54095.0,STARLINK-5193,PAYLOAD,2022-12-27 08:00:01,15.11472551,0.0001539,53.217,178.5919,58.7298,124.6022,-0.07256,-0.01143754,0.0,0 STARLINK-5193,1 54095U 22136AW  22361.33335648 -.01143754  00000-0 -72560-1 0  9994,2 54095  53.2170 178.5919 0001539  58.7298 124.6022 15.11472551 11078,6909.845,95.271,532.774,530.6469999999998,0.0
54095.0,STARLINK-5193,PAYLOAD,2022-12-27 14:00:01,15.10877048,0.0001615,53.2166,177.4656,53.8208,50.2315,-0.075266,-0.01165054,0.0,0 STARLINK-5193,1 54095U 22136AW  22361.58334491 -.01165054  00000-0 -75266-1 0  9999,2 54095  53.2166 177.4656 0001615  53.8208  50.2315 15.10877048  1304,6911.661,95.309,534.6419999999998,532.41,0.0
54095.0,STARLINK-5193,PAYLOAD,2022-12-27 22:00:00,15.10053809,0.0001534,53.2168,175.9673,61.3725,56.2141,-0.076009,-0.01151108,0.0,0 STARLINK-5193,1 54095U 22136AW  22361.91667824 -.01151108  00000-0 -76009-1 0  9996,2 54095  53.2168 175.9673 0001534  61.3725  56.2141 15.10053809  1300,6914.1730000000025,95.361,537.0980000000002,534.977,0.0
54095.0,STARLINK-5193,PAYLOAD,2022-12-28 08:00:01,15.09030821,0.0001530999999999,53.2171,174.0929,58.8461,164.2833,-0.077568,-0.01142664,0.0,0 STARLINK-5193,1 54095U 22136AW  22362.33334491 -.01142664  00000-0 -77568-1 0  9992,2 54095  53.2171 174.0929 0001531  58.8461 164.2833 15.09030821 11231,6917.297,95.425,540.221,538.1030000000002,0.0
54095.0,STARLINK-5193,PAYLOAD,2022-12-28 14:00:01,15.08421771,0.00016,53.2166,172.9709,52.6603,89.053,-0.077836,-0.0112872,0.0,0 STARLINK-5193,1 54095U 22136AW  22362.58334491 -.01128720  00000-0 -77836-1 0  9994,2 54095  53.2166 172.9709 0001600  52.6603  89.0530 15.08421771  1307,6919.159000000002,95.464,542.131,539.9169999999998,0.0
54095.0,STARLINK-5193,PAYLOAD,2022-12-28 22:00:00,15.07511382,0.0001517,53.2168,171.4782,54.7943,97.5298,-0.0284959999999999,-0.00413163,0.0,0 STARLINK-5193,1 54095U 22136AW  22362.91667824 -.00413163  00000-0 -28496-1 0  9995,2 54095  53.2168 171.4782 0001517  54.7943  97.5298 15.07511382  1303,6921.944,95.522,544.859,542.759,0.0
54095.0,STARLINK-5193,PAYLOAD,2022-12-29 00:00:00,15.07367119,0.0001521999999999,53.217,171.1047,55.8385,188.9921,-0.0166599999999999,-0.00246369,0.0,0 STARLINK-5193,1 54095U 22136AW  22363.00001157 -.00246369  00000-0 -16660-1 0  9999,2 54095  53.2170 171.1047 0001522  55.8385 188.9921 15.07367119 11334,6922.386,95.531,545.305,543.197,0.0
54095.0,STARLINK-5193,PAYLOAD,2022-12-29 08:00:01,15.07217568,0.0001492,53.2137,169.608,61.0933,193.452,0.00069304,0.00010285,0.0,0 STARLINK-5193,1 54095U 22136AW  22363.33334491  .00010285  00000-0  69304-3 0  9994,2 54095  53.2137 169.6080 0001492  61.0933 193.4520 15.07217568 11383,6922.844,95.54,545.742,543.6759999999998,0.0
54095.0,STARLINK-5193,PAYLOAD,2022-12-29 14:00:01,15.07221806,0.0001579,53.2145,168.4891,62.4409,109.3285,-0.0014424,-0.00022182,0.0,0 STARLINK-5193,1 54095U 22136AW  22363.58334491 -.00022182  00000-0 -14424-2 0  9994,2 54095  53.2145 168.4891 0001579  62.4409 109.3285 15.07221806  1303,6922.831,95.54,545.789,543.6030000000002,0.0
54095.0,STARLINK-5193,PAYLOAD,2022-12-30 00:00:00,15.07219909,0.0001588999999999,53.2145,166.6243,54.4144,219.4036,-0.006122,-0.00092311,0.0,0 STARLINK-5193,1 54095U 22136AW  22364.00001157 -.00092311  00000-0 -61220-2 0  9999,2 54095  53.2145 166.6243 0001589  54.4144 219.4036 15.07219909 11480,6922.837,95.54,545.802,543.602,0.0
